{
    "week": 287,
    "satellites": [
        {
            "Name": "COSMOS 2433 (720)",
            "Line1": "1 32275U 07052A   24283.24878807 -.00000040  00000+0  00000+0 0  9999",
            "Line2": "2 32275  65.8889 336.5857 0005404 236.9461 123.0732  2.13104105131938",
            "SatelliteNumber": "32275",
            "Classification": "U",
            "LaunchYear": "07",
            "LaunchNumber": "052",
            "PieceOfLaunch": "A",
            "EpochYear": "24",
            "EpochDay": 283.24878807,
            "FirstDerivativeMeanMotion": -4e-07,
            "SecondDerivativeMeanMotion": "00000+0",
            "BSTAR": "00000+0",
            "SetNumber": "999",
            "Inclination": 65.8889,
            "RAAN": 336.5857,
            "Eccentricity": 0.0005404,
            "ArgumentOfPerigee": 236.9461,
            "MeanAnomaly": 123.0732,
            "MeanMotion": 2.13104105,
            "RevolutionNumber": "13193"
        },
        {
            "Name": "COSMOS 2432 (719)",
            "Line1": "1 32276U 07052B   24284.33985666 -.00000037  00000+0  00000+0 0  9999",
            "Line2": "2 32276  65.9036 336.6654 0009816 309.2569 113.6531  2.13103119131985",
            "SatelliteNumber": "32276",
            "Classification": "U",
            "LaunchYear": "07",
            "LaunchNumber": "052",
            "PieceOfLaunch": "B",
            "EpochYear": "24",
            "EpochDay": 284.33985666,
            "FirstDerivativeMeanMotion": -3.7e-07,
            "SecondDerivativeMeanMotion": "00000+0",
            "BSTAR": "00000+0",
            "SetNumber": "999",
            "Inclination": 65.9036,
            "RAAN": 336.6654,
            "Eccentricity": 0.0009816,
            "ArgumentOfPerigee": 309.2569,
            "MeanAnomaly": 113.6531,
            "MeanMotion": 2.13103119,
            "RevolutionNumber": "13198"
        },
        {
            "Name": "COSMOS 2434 (721)",
            "Line1": "1 32393U 07065A   24283.61646851  .00000024  00000+0  00000+0 0  9998",
            "Line2": "2 32393  64.3185 212.6995 0001906  62.3798 111.8773  2.13101288130686",
            "SatelliteNumber": "32393",
            "Classification": "U",
            "LaunchYear": "07",
            "LaunchNumber": "065",
            "PieceOfLaunch": "A",
            "EpochYear": "24",
            "EpochDay": 283.61646851,
            "FirstDerivativeMeanMotion": 2.4e-07,
            "SecondDerivativeMeanMotion": "00000+0",
            "BSTAR": "00000+0",
            "SetNumber": "999",
            "Inclination": 64.3185,
            "RAAN": 212.6995,
            "Eccentricity": 0.0001906,
            "ArgumentOfPerigee": 62.3798,
            "MeanAnomaly": 111.8773,
            "MeanMotion": 2.13101288,
            "RevolutionNumber": "13068"
        },
        {
            "Name": "COSMOS 2436 (723)",
            "Line1": "1 32395U 07065C   24284.32605781  .00000019  00000+0  00000+0 0  9990",
            "Line2": "2 32395  64.3269 212.7411 0016737 359.5968 133.9567  2.13100014130629",
            "SatelliteNumber": "32395",
            "Classification": "U",
            "LaunchYear": "07",
            "LaunchNumber": "065",
            "PieceOfLaunch": "C",
            "EpochYear": "24",
            "EpochDay": 284.32605781,
            "FirstDerivativeMeanMotion": 1.9e-07,
            "SecondDerivativeMeanMotion": "00000+0",
            "BSTAR": "00000+0",
            "SetNumber": "999",
            "Inclination": 64.3269,
            "RAAN": 212.7411,
            "Eccentricity": 0.0016737,
            "ArgumentOfPerigee": 359.5968,
            "MeanAnomaly": 133.9567,
            "MeanMotion": 2.13100014,
            "RevolutionNumber": "13062"
        },
        {
            "Name": "COSMOS 2456 (730)",
            "Line1": "1 36111U 09070A   24284.34330515  .00000074  00000+0  00000+0 0  9991",
            "Line2": "2 36111  64.6682  92.0060 0001366 334.9720 191.1432  2.13103744115325",
            "SatelliteNumber": "36111",
            "Classification": "U",
            "LaunchYear": "09",
            "LaunchNumber": "070",
            "PieceOfLaunch": "A",
            "EpochYear": "24",
            "EpochDay": 284.34330515,
            "FirstDerivativeMeanMotion": 7.4e-07,
            "SecondDerivativeMeanMotion": "00000+0",
            "BSTAR": "00000+0",
            "SetNumber": "999",
            "Inclination": 64.6682,
            "RAAN": 92.006,
            "Eccentricity": 0.0001366,
            "ArgumentOfPerigee": 334.972,
            "MeanAnomaly": 191.1432,
            "MeanMotion": 2.13103744,
            "RevolutionNumber": "11532"
        },
        {
            "Name": "COSMOS 2457 (733)",
            "Line1": "1 36112U 09070B   24284.17254142  .00000073  00000+0  00000+0 0  9993",
            "Line2": "2 36112  64.6527  91.8679 0006272 143.8555  24.3286  2.13101182115329",
            "SatelliteNumber": "36112",
            "Classification": "U",
            "LaunchYear": "09",
            "LaunchNumber": "070",
            "PieceOfLaunch": "B",
            "EpochYear": "24",
            "EpochDay": 284.17254142,
            "FirstDerivativeMeanMotion": 7.3e-07,
            "SecondDerivativeMeanMotion": "00000+0",
            "BSTAR": "00000+0",
            "SetNumber": "999",
            "Inclination": 64.6527,
            "RAAN": 91.8679,
            "Eccentricity": 0.0006272,
            "ArgumentOfPerigee": 143.8555,
            "MeanAnomaly": 24.3286,
            "MeanMotion": 2.13101182,
            "RevolutionNumber": "11532"
        },
        {
            "Name": "COSMOS 2460 (732)",
            "Line1": "1 36402U 10007C   24284.43613792 -.00000034  00000+0  00000+0 0  9994",
            "Line2": "2 36402  65.7425 335.1915 0002479 237.1315 126.6427  2.13106216113721",
            "SatelliteNumber": "36402",
            "Classification": "U",
            "LaunchYear": "10",
            "LaunchNumber": "007",
            "PieceOfLaunch": "C",
            "EpochYear": "24",
            "EpochDay": 284.43613792,
            "FirstDerivativeMeanMotion": -3.4e-07,
            "SecondDerivativeMeanMotion": "00000+0",
            "BSTAR": "00000+0",
            "SetNumber": "999",
            "Inclination": 65.7425,
            "RAAN": 335.1915,
            "Eccentricity": 0.0002479,
            "ArgumentOfPerigee": 237.1315,
            "MeanAnomaly": 126.6427,
            "MeanMotion": 2.13106216,
            "RevolutionNumber": "11372"
        },
        {
            "Name": "COSMOS 2476 (744)",
            "Line1": "1 37867U 11064A   24282.13243883  .00000058  00000+0  00000+0 0  9994",
            "Line2": "2 37867  64.9381  93.7587 0021884 230.3824 311.5473  2.13101626100612",
            "SatelliteNumber": "37867",
            "Classification": "U",
            "LaunchYear": "11",
            "LaunchNumber": "064",
            "PieceOfLaunch": "A",
            "EpochYear": "24",
            "EpochDay": 282.13243883,
            "FirstDerivativeMeanMotion": 5.8e-07,
            "SecondDerivativeMeanMotion": "00000+0",
            "BSTAR": "00000+0",
            "SetNumber": "999",
            "Inclination": 64.9381,
            "RAAN": 93.7587,
            "Eccentricity": 0.0021884,
            "ArgumentOfPerigee": 230.3824,
            "MeanAnomaly": 311.5473,
            "MeanMotion": 2.13101626,
            "RevolutionNumber": "10061"
        },
        {
            "Name": "COSMOS 2477 (745)",
            "Line1": "1 37868U 11064B   24284.17622312  .00000076  00000+0  00000+0 0  9999",
            "Line2": "2 37868  64.9460  93.7631 0019069 230.4822 258.0565  2.13103049100654",
            "SatelliteNumber": "37868",
            "Classification": "U",
            "LaunchYear": "11",
            "LaunchNumber": "064",
            "PieceOfLaunch": "B",
            "EpochYear": "24",
            "EpochDay": 284.17622312,
            "FirstDerivativeMeanMotion": 7.6e-07,
            "SecondDerivativeMeanMotion": "00000+0",
            "BSTAR": "00000+0",
            "SetNumber": "999",
            "Inclination": 64.946,
            "RAAN": 93.7631,
            "Eccentricity": 0.0019069,
            "ArgumentOfPerigee": 230.4822,
            "MeanAnomaly": 258.0565,
            "MeanMotion": 2.13103049,
            "RevolutionNumber": "10065"
        },
        {
            "Name": "COSMOS 2475 (743)",
            "Line1": "1 37869U 11064C   24284.28647394  .00000077  00000+0  00000+0 0  9990",
            "Line2": "2 37869  64.9528  93.7752 0023377 247.6552 283.3668  2.13101790100668",
            "SatelliteNumber": "37869",
            "Classification": "U",
            "LaunchYear": "11",
            "LaunchNumber": "064",
            "PieceOfLaunch": "C",
            "EpochYear": "24",
            "EpochDay": 284.28647394,
            "FirstDerivativeMeanMotion": 7.7e-07,
            "SecondDerivativeMeanMotion": "00000+0",
            "BSTAR": "00000+0",
            "SetNumber": "999",
            "Inclination": 64.9528,
            "RAAN": 93.7752,
            "Eccentricity": 0.0023377,
            "ArgumentOfPerigee": 247.6552,
            "MeanAnomaly": 283.3668,
            "MeanMotion": 2.1310179,
            "RevolutionNumber": "10066"
        }
    ]
}